[{"OBJECT_NAME":"STARLINK-2640","OBJECT_ID":"2021-040L","EPOCH":"2026-03-09T14:24:31.425408","MEAN_MOTION":15.30197527,"ECCENTRICITY":0.0001313,"INCLINATION":53.1614,"RA_OF_ASC_NODE":178.5516,"ARG_OF_PERICENTER":101.7089,"MEAN_ANOMALY":258.4059,"EPHEMERIS_TYPE":0,"CLASSIFICATION_TYPE":"U","NORAD_CAT_ID":48438,"ELEMENT_SET_NO":999,"REV_AT_EPOCH":26666,"BSTAR":-4.3242e-5,"MEAN_MOTION_DOT":-1.64e-5,"MEAN_MOTION_DDOT":0},{"OBJECT_NAME":"GEOSCAN 6 (RS92S6)","OBJECT_ID":"2025-155D","EPOCH":"2026-03-09T21:52:39.201312","MEAN_MOTION":15.27985277,"ECCENTRICITY":0.00087677,"INCLINATION":97.4466,"RA_OF_ASC_NODE":37.2933,"ARG_OF_PERICENTER":153.7679,"MEAN_ANOMALY":206.4006,"EPHEMERIS_TYPE":0,"CLASSIFICATION_TYPE":"U","NORAD_CAT_ID":64879,"ELEMENT_SET_NO":999,"REV_AT_EPOCH":6559,"BSTAR":0.00053762354,"MEAN_MOTION_DOT":0.00014633,"MEAN_MOTION_DDOT":0}]
